EUTELSAT 7A             
1 28187U 04008A   25295.45067667  .00000114  00000+0  00000+0 0  9996
2 28187   5.2240  74.8335 0000866 106.9312 232.4348  1.00269871 78963
EUTELSAT 174A           
1 28924U 05052A   25295.08468394  .00000021  00000+0  00000+0 0  9993
2 28924   3.6135  79.4642 0006278 134.4766  21.4218  1.00275623 49941
EUTELSAT HOTBIRD 13B    
1 29270U 06032A   25295.48482352  .00000166  00000+0  00000+0 0  9991
2 29270   1.0435  84.8074 0003950 119.1464  34.8514  1.00272778 44927
EUTELSAT HOTBIRD 13C    
1 33459U 08065A   25295.26174242 -.00000090  00000+0  00000+0 0  9992
2 33459   2.3352  81.9905 0005846 149.1180 241.5951  1.00272338 44966
EUTELSAT 36B            
1 36101U 09065A   25294.88378352  .00000119  00000+0  00000+0 0  9996
2 36101   0.0523 354.3486 0006030 221.1708 183.7472  1.00274959 58312
EUTELSAT KA-SAT 9A      
1 37258U 10069A   25295.26598911  .00000070  00000+0  00000+0 0  9990
2 37258   0.0593 319.9540 0002427 217.9295 317.8407  1.00268995 41628
EUTELSAT 7 WEST A       
1 37816U 11051A   25295.26278242 -.00000051  00000+0  00000+0 0  9994
2 37816   0.0893  44.0420 0006307 161.6010 272.6248  1.00272394 51502
EUTELSAT 16A            
1 37836U 11057A   25295.26737579  .00000113  00000+0  00000+0 0  9993
2 37836   0.0674 354.8317 0005504 219.7938 288.6150  1.00273851  4944
